{
  "norad_id": 55392,
  "name": "STARLINK-5085",
  "history": [
    {
      "epoch": "2026-05-02T09:06:55.751616Z",
      "apogee_km": 574.1234120319468,
      "perigee_km": 570.0005539952226,
      "latitude_deg": 5.2406252596473224e-05,
      "longitude_deg": -88.05956741943635,
      "height_km": 574.5747502140232,
      "semi_major_axis_km": 6950.198983013584,
      "eccentricity": 0.0002966,
      "inclination_deg": 69.9997,
      "raan_deg": 268.9714,
      "arg_perigee_deg": 267.6267,
      "mean_anomaly_deg": 92.4553,
      "mean_motion_rev_day": 14.9832803
    },
    {
      "epoch": "2026-05-03T17:09:36.805248Z",
      "apogee_km": 574.3175851567439,
      "perigee_km": 569.7763349572424,
      "latitude_deg": -7.454955749971232e-05,
      "longitude_deg": 146.58589569958673,
      "height_km": 574.5354402599879,
      "semi_major_axis_km": 6950.183960056993,
      "eccentricity": 0.0003267,
      "inclination_deg": 69.9991,
      "raan_deg": 265.604,
      "arg_perigee_deg": 268.4653,
      "mean_anomaly_deg": 91.6131,
      "mean_motion_rev_day": 14.98332888
    },
    {
      "epoch": "2026-05-04T18:47:45.996864Z",
      "apogee_km": 574.307322269523,
      "perigee_km": 569.8105455002997,
      "latitude_deg": -2.984547767616215e-05,
      "longitude_deg": 118.30198137636306,
      "height_km": 574.4993637349334,
      "semi_major_axis_km": 6950.195933884911,
      "eccentricity": 0.0003235,
      "inclination_deg": 69.9993,
      "raan_deg": 262.9112,
      "arg_perigee_deg": 269.674,
      "mean_anomaly_deg": 90.4048,
      "mean_motion_rev_day": 14.98329016
    },
    {
      "epoch": "2026-05-05T18:49:48.052416Z",
      "apogee_km": 574.356721909834,
      "perigee_km": 569.8390692277153,
      "latitude_deg": 3.423123347872349e-05,
      "longitude_deg": 114.28149859425528,
      "height_km": 574.4828057169118,
      "semi_major_axis_km": 6950.234895568775,
      "eccentricity": 0.000325,
      "inclination_deg": 69.9993,
      "raan_deg": 260.3863,
      "arg_perigee_deg": 271.0835,
      "mean_anomaly_deg": 88.9952,
      "mean_motion_rev_day": 14.98316417
    },
    {
      "epoch": "2026-05-06T18:51:49.776192Z",
      "apogee_km": 574.130830276079,
      "perigee_km": 570.056605029391,
      "latitude_deg": -1.5794518236999482e-05,
      "longitude_deg": 110.26326066396508,
      "height_km": 574.493811843869,
      "semi_major_axis_km": 6950.230717652735,
      "eccentricity": 0.0002931,
      "inclination_deg": 70.0002,
      "raan_deg": 257.8623,
      "arg_perigee_deg": 270.7676,
      "mean_anomaly_deg": 89.3147,
      "mean_motion_rev_day": 14.98317768
    },
    {
      "epoch": "2026-05-07T18:53:50.202240Z",
      "apogee_km": 574.021362358023,
      "perigee_km": 570.1348020840442,
      "latitude_deg": 8.987567594677947e-06,
      "longitude_deg": 106.24837210798012,
      "height_km": 574.6767446763959,
      "semi_major_axis_km": 6950.215082221033,
      "eccentricity": 0.0002796,
      "inclination_deg": 70.0002,
      "raan_deg": 255.3362,
      "arg_perigee_deg": 264.9401,
      "mean_anomaly_deg": 95.1439,
      "mean_motion_rev_day": 14.98322824
    },
    {
      "epoch": "2026-05-08T14:07:26.488128Z",
      "apogee_km": 574.44518714269,
      "perigee_km": 569.639833029416,
      "latitude_deg": 2.9743931020947555e-05,
      "longitude_deg": 175.03787162460145,
      "height_km": 574.6213233776994,
      "semi_major_axis_km": 6950.179510086053,
      "eccentricity": 0.0003457,
      "inclination_deg": 69.999,
      "raan_deg": 253.3165,
      "arg_perigee_deg": 266.3974,
      "mean_anomaly_deg": 93.679,
      "mean_motion_rev_day": 14.98334327
    },
    {
      "epoch": "2026-05-09T17:21:42.636096Z",
      "apogee_km": 574.291909325545,
      "perigee_km": 569.7326114107427,
      "latitude_deg": -3.754929328829057e-05,
      "longitude_deg": 122.4907440080947,
      "height_km": 574.5176912400242,
      "semi_major_axis_km": 6950.149260368144,
      "eccentricity": 0.000328,
      "inclination_deg": 69.9997,
      "raan_deg": 250.4553,
      "arg_perigee_deg": 268.0468,
      "mean_anomaly_deg": 92.0315,
      "mean_motion_rev_day": 14.98344109
    },
    {
      "epoch": "2026-05-10T17:23:43.764576Z",
      "apogee_km": 574.3745089858057,
      "perigee_km": 569.6984322747658,
      "latitude_deg": 4.1529321966629615e-05,
      "longitude_deg": 118.47384255428081,
      "height_km": 574.4905824071265,
      "semi_major_axis_km": 6950.173470630286,
      "eccentricity": 0.0003364,
      "inclination_deg": 69.9996,
      "raan_deg": 247.9301,
      "arg_perigee_deg": 269.3548,
      "mean_anomaly_deg": 90.7226,
      "mean_motion_rev_day": 14.9833628
    },
    {
      "epoch": "2026-05-11T17:25:44.412672Z",
      "apogee_km": 574.3676834769803,
      "perigee_km": 569.7110653061382,
      "latitude_deg": -1.265663254775293e-05,
      "longitude_deg": 114.45910085619316,
      "height_km": 574.4655520473437,
      "semi_major_axis_km": 6950.176374391559,
      "eccentricity": 0.000335,
      "inclination_deg": 69.9996,
      "raan_deg": 245.4051,
      "arg_perigee_deg": 270.0392,
      "mean_anomaly_deg": 90.0383,
      "mean_motion_rev_day": 14.98335341
    },
    {
      "epoch": "2026-05-12T14:15:28.974240Z",
      "apogee_km": 574.3954570750811,
      "perigee_km": 569.7013018697853,
      "latitude_deg": -4.179396030977524e-06,
      "longitude_deg": 158.9803125207544,
      "height_km": 574.4858898552925,
      "semi_major_axis_km": 6950.185379472433,
      "eccentricity": 0.0003377,
      "inclination_deg": 69.9996,
      "raan_deg": 243.2174,
      "arg_perigee_deg": 269.7628,
      "mean_anomaly_deg": 90.3144,
      "mean_motion_rev_day": 14.98332429
    },
    {
      "epoch": "2026-05-13T11:05:13.941888Z",
      "apogee_km": 574.4310822713323,
      "perigee_km": 569.6785411104975,
      "latitude_deg": 7.286823961792795e-05,
      "longitude_deg": -156.5005473871825,
      "height_km": 574.4913947945289,
      "semi_major_axis_km": 6950.191811690915,
      "eccentricity": 0.0003419,
      "inclination_deg": 69.9996,
      "raan_deg": 241.0293,
      "arg_perigee_deg": 269.7888,
      "mean_anomaly_deg": 90.288,
      "mean_motion_rev_day": 14.98330349
    },
    {
      "epoch": "2026-05-13T23:54:18.323424Z",
      "apogee_km": 574.4255996005531,
      "perigee_km": 569.6737569686102,
      "latitude_deg": -2.71185196411053e-05,
      "longitude_deg": 9.35824858835745,
      "height_km": 574.4853078336577,
      "semi_major_axis_km": 6950.186678284581,
      "eccentricity": 0.00034185,
      "inclination_deg": 69.9996,
      "raan_deg": 239.6828,
      "arg_perigee_deg": 269.812,
      "mean_anomaly_deg": 90.2647,
      "mean_motion_rev_day": 14.98332009
    }
  ]
}